[Satellite]
VERSION=1.1
NAME=GPS BIIF-7  (PRN 09)
NICKNAME=GPS BIIF-7  (PRN 09)
TLE1=1 40105U 14045A   18020.80238535  .00000077  00000-0  00000-0 0  9993
TLE2=2 40105  54.6021 211.1169 0009410 102.0438 258.0781  2.00560657 24540
